{"type": "FeatureCollection", "features": [ {"type": "Feature", "properties": {"norad_id": 60453, "name": "LEGION 4", "group": "resource", "lat": 37.90186195882536, "lon": 93.1646464424949, "alt_km": 514.8425568662933, "timestamp": "2025-12-12T16:50:32.805521+00:00", "meta": {"OBJECT_NAME": "LEGION 4", "OBJECT_ID": "2024-146B", "EPOCH": "2025-12-12T05:30:22.582656", "MEAN_MOTION": 15.15816144, "ECCENTRICITY": 0.00095191, "INCLINATION": 45.0388, "RA_OF_ASC_NODE": 44.6172, "ARG_OF_PERICENTER": 308.4043, "MEAN_ANOMALY": 51.5981, "EPHEMERIS_TYPE": 0, "CLASSIFICATION_TYPE": "U", "NORAD_CAT_ID": 60453, "ELEMENT_SET_NO": 999, "REV_AT_EPOCH": 7250, "BSTAR": 0.00042590992, "MEAN_MOTION_DOT": 8.028e-05, "MEAN_MOTION_DDOT": 0}, "tle": {"line1": "1 60453U 24146B   25346.22942804  .00008028  00000+0  42591-3 0  9997", "line2": "2 60453  45.0388  44.6172 0009519 308.4043  51.5981 15.15816144 72507"}}, "geometry": {"type": "Point", "coordinates": [93.1646464424949, 37.90186195882536]}}, {"type": "Feature", "properties": {"norad_id": 60989, "name": "SENTINEL-2C", "group": "resource", "lat": 11.677894920320492, "lon": -119.02944266016759, "alt_km": 790.0315088982043, "timestamp": "2025-12-12T16:50:32.805531+00:00", "meta": {"OBJECT_NAME": "SENTINEL-2C", "OBJECT_ID": "2024-157A", "EPOCH": "2025-12-12T04:18:40.681728", "MEAN_MOTION": 14.30817207, "ECCENTRICITY": 0.00011987, "INCLINATION": 98.5683, "RA_OF_ASC_NODE": 58.6703, "ARG_OF_PERICENTER": 97.3608, "MEAN_ANOMALY": 262.7711, "EPHEMERIS_TYPE": 0, "CLASSIFICATION_TYPE": "U", "NORAD_CAT_ID": 60989, "ELEMENT_SET_NO": 999, "REV_AT_EPOCH": 6624, "BSTAR": 0.00010420409, "MEAN_MOTION_DOT": 2.3e-06, "MEAN_MOTION_DDOT": 0}, "tle": {"line1": "1 60989U 24157A   25346.17963752  .00000230  00000+0  10420-3 0  9995", "line2": "2 60989  98.5683  58.6703 0001198  97.3608 262.7711 14.30817207 66241"}}, "geometry": {"type": "Point", "coordinates": [-119.02944266016759, 11.677894920320492]}}, {"type": "Feature", "properties": {"norad_id": 61735, "name": "IONOSFERA-M 1", "group": "resource", "lat": 73.1355022289976, "lon": -173.94615163837878, "alt_km": 808.7278027009779, "timestamp": "2025-12-12T16:50:32.805541+00:00", "meta": {"OBJECT_NAME": "IONOSFERA-M 1", "OBJECT_ID": "2024-199A", "EPOCH": "2025-12-12T08:02:58.179840", "MEAN_MOTION": 14.22713912, "ECCENTRICITY": 9.892e-05, "INCLINATION": 98.7404, "RA_OF_ASC_NODE": 216.1867, "ARG_OF_PERICENTER": 22.7439, "MEAN_ANOMALY": 337.3782, "EPHEMERIS_TYPE": 0, "CLASSIFICATION_TYPE": "U", "NORAD_CAT_ID": 61735, "ELEMENT_SET_NO": 999, "REV_AT_EPOCH": 10113, "BSTAR": 6.7180058e-05, "MEAN_MOTION_DOT": 1.06e-06, "MEAN_MOTION_DDOT": 0}, "tle": {"line1": "1 61735U 24199A   25346.33539560  .00000106  00000+0  67180-4 0  9993", "line2": "2 61735  98.7404 216.1867 0000989  22.7439 337.3782 14.22713912101131"}}, "geometry": {"type": "Point", "coordinates": [-173.94615163837878, 73.1355022289976]}}, {"type": "Feature", "properties": {"norad_id": 61736, "name": "IONOSFERA-M 2", "group": "resource", "lat": -75.38191598401917, "lon": 0.3176902978873917, "alt_km": 824.4747556592683, "timestamp": "2025-12-12T16:50:32.805551+00:00", "meta": {"OBJECT_NAME": "IONOSFERA-M 2", "OBJECT_ID": "2024-199B", "EPOCH": "2025-12-12T07:11:35.337984", "MEAN_MOTION": 14.22716075, "ECCENTRICITY": 0.00016304, "INCLINATION": 98.7402, "RA_OF_ASC_NODE": 216.0638, "ARG_OF_PERICENTER": 111.3347, "MEAN_ANOMALY": 248.8005, "EPHEMERIS_TYPE": 0, "CLASSIFICATION_TYPE": "U", "NORAD_CAT_ID": 61736, "ELEMENT_SET_NO": 999, "REV_AT_EPOCH": 10425, "BSTAR": 7.0455129e-05, "MEAN_MOTION_DOT": 1.14e-06, "MEAN_MOTION_DDOT": 0}, "tle": {"line1": "1 61736U 24199B   25346.29971456  .00000114  00000+0  70455-4 0  9991", "line2": "2 61736  98.7402 216.0638 0001630 111.3347 248.8005 14.22716075104255"}}, "geometry": {"type": "Point", "coordinates": [0.3176902978873917, -75.38191598401917]}}, {"type": "Feature", "properties": {"norad_id": 63772, "name": "BIOMASS", "group": "resource", "lat": 80.1484479908957, "lon": 116.91977798218706, "alt_km": 660.5094380589126, "timestamp": "2025-12-12T16:50:32.805561+00:00", "meta": {"OBJECT_NAME": "BIOMASS", "OBJECT_ID": "2025-090A", "EPOCH": "2025-12-12T06:38:29.116032", "MEAN_MOTION": 14.67535313, "ECCENTRICITY": 0.00014804, "INCLINATION": 98.0704, "RA_OF_ASC_NODE": 171.2929, "ARG_OF_PERICENTER": 77.1218, "MEAN_ANOMALY": 283.0152, "EPHEMERIS_TYPE": 0, "CLASSIFICATION_TYPE": "U", "NORAD_CAT_ID": 63772, "ELEMENT_SET_NO": 999, "REV_AT_EPOCH": 3327, "BSTAR": 0.00037322108, "MEAN_MOTION_DOT": 2.069e-05, "MEAN_MOTION_DDOT": 0}, "tle": {"line1": "1 63772U 25090A   25346.27672588  .00002069  00000+0  37322-3 0  9992", "line2": "2 63772  98.0704 171.2929 0001480  77.1218 283.0152 14.67535313 33279"}}, "geometry": {"type": "Point", "coordinates": [116.91977798218706, 80.1484479908957]}}, {"type": "Feature", "properties": {"norad_id": 64694, "name": "GOSAT-GW (IBUKI GW)", "group": "resource", "lat": -64.94146288180708, "lon": -60.18266517243092, "alt_km": 676.9690349540733, "timestamp": "2025-12-12T16:50:32.805571+00:00", "meta": {"OBJECT_NAME": "GOSAT-GW (IBUKI GW)", "OBJECT_ID": "2025-141A", "EPOCH": "2025-12-12T07:19:31.904832", "MEAN_MOTION": 14.67556077, "ECCENTRICITY": 0.00014414, "INCLINATION": 98.0424, "RA_OF_ASC_NODE": 281.826, "ARG_OF_PERICENTER": 84.2127, "MEAN_ANOMALY": 275.9242, "EPHEMERIS_TYPE": 0, "CLASSIFICATION_TYPE": "U", "NORAD_CAT_ID": 64694, "ELEMENT_SET_NO": 999, "REV_AT_EPOCH": 2443, "BSTAR": 0.00024426449, "MEAN_MOTION_DOT": 1.338e-05, "MEAN_MOTION_DDOT": 0}, "tle": {"line1": "1 64694U 25141A   25346.30523038  .00001338  00000+0  24426-3 0  9991", "line2": "2 64694  98.0424 281.8260 0001441  84.2127 275.9242 14.67556077 24431"}}, "geometry": {"type": "Point", "coordinates": [-60.18266517243092, -64.94146288180708]}}, {"type": "Feature", "properties": {"norad_id": 64876, "name": "IONOSFERA-M 3", "group": "resource", "lat": -56.46551988476015, "lon": -38.26633260047128, "alt_km": 828.2518484023531, "timestamp": "2025-12-12T16:50:32.805582+00:00", "meta": {"OBJECT_NAME": "IONOSFERA-M 3", "OBJECT_ID": "2025-155A", "EPOCH": "2025-12-12T06:58:33.604608", "MEAN_MOTION": 14.21440865, "ECCENTRICITY": 0.00022416, "INCLINATION": 98.5782, "RA_OF_ASC_NODE": 308.1695, "ARG_OF_PERICENTER": 60.7624, "MEAN_ANOMALY": 299.3777, "EPHEMERIS_TYPE": 0, "CLASSIFICATION_TYPE": "U", "NORAD_CAT_ID": 64876, "ELEMENT_SET_NO": 999, "REV_AT_EPOCH": 1985, "BSTAR": 9.0973395e-05, "MEAN_MOTION_DOT": 1.56e-06, "MEAN_MOTION_DDOT": 0}, "tle": {"line1": "1 64876U 25155A   25346.29066672  .00000156  00000+0  90973-4 0  9990", "line2": "2 64876  98.5782 308.1695 0002241  60.7624 299.3777 14.21440865 19850"}}, "geometry": {"type": "Point", "coordinates": [-38.26633260047128, -56.46551988476015]}}, {"type": "Feature", "properties": {"norad_id": 64877, "name": "IONOSFERA-M 4", "group": "resource", "lat": 55.67271655052556, "lon": 141.25887046818272, "alt_km": 814.5742345487542, "timestamp": "2025-12-12T16:50:32.805592+00:00", "meta": {"OBJECT_NAME": "IONOSFERA-M 4", "OBJECT_ID": "2025-155B", "EPOCH": "2025-12-12T07:49:03.340704", "MEAN_MOTION": 14.21441997, "ECCENTRICITY": 0.00015925, "INCLINATION": 98.5781, "RA_OF_ASC_NODE": 308.1231, "ARG_OF_PERICENTER": 63.9256, "MEAN_ANOMALY": 296.2086, "EPHEMERIS_TYPE": 0, "CLASSIFICATION_TYPE": "U", "NORAD_CAT_ID": 64877, "ELEMENT_SET_NO": 999, "REV_AT_EPOCH": 1985, "BSTAR": 8.9787615e-05, "MEAN_MOTION_DOT": 1.54e-06, "MEAN_MOTION_DDOT": 0}, "tle": {"line1": "1 64877U 25155B   25346.32573311  .00000154  00000+0  89788-4 0  9998", "line2": "2 64877  98.5781 308.1231 0001592  63.9256 296.2086 14.21441997 19856"}}, "geometry": {"type": "Point", "coordinates": [141.25887046818272, 55.67271655052556]}}, {"type": "Feature", "properties": {"norad_id": 64899, "name": "MICROCARB", "group": "resource", "lat": -81.91669937176178, "lon": 144.1632309110922, "alt_km": 668.9775051582419, "timestamp": "2025-12-12T16:50:32.805602+00:00", "meta": {"OBJECT_NAME": "MICROCARB", "OBJECT_ID": "2025-156A", "EPOCH": "2025-12-12T04:11:46.217472", "MEAN_MOTION": 14.7205564, "ECCENTRICITY": 0.00171054, "INCLINATION": 98.0026, "RA_OF_ASC_NODE": 61.5294, "ARG_OF_PERICENTER": 146.4613, "MEAN_ANOMALY": 213.7681, "EPHEMERIS_TYPE": 0, "CLASSIFICATION_TYPE": "U", "NORAD_CAT_ID": 64899, "ELEMENT_SET_NO": 999, "REV_AT_EPOCH": 2045, "BSTAR": 0.0001904386, "MEAN_MOTION_DOT": 1.15e-05, "MEAN_MOTION_DDOT": 0}, "tle": {"line1": "1 64899U 25156A   25346.17484048  .00001150  00000+0  19044-3 0  9998", "line2": "2 64899  98.0026  61.5294 0017105 146.4613 213.7681 14.72055640 20452"}}, "geometry": {"type": "Point", "coordinates": [144.1632309110922, -81.91669937176178]}}, {"type": "Feature", "properties": {"norad_id": 64900, "name": "CO3D 3", "group": "resource", "lat": -53.47606479292002, "lon": 73.24054932519337, "alt_km": 514.3387813705267, "timestamp": "2025-12-12T16:50:32.805613+00:00", "meta": {"OBJECT_NAME": "CO3D 3", "OBJECT_ID": "2025-156B", "EPOCH": "2025-12-12T04:26:31.994592", "MEAN_MOTION": 15.20160723, "ECCENTRICITY": 0.00054722, "INCLINATION": 97.4437, "RA_OF_ASC_NODE": 62.5626, "ARG_OF_PERICENTER": 185.32, "MEAN_ANOMALY": 174.7978, "EPHEMERIS_TYPE": 0, "CLASSIFICATION_TYPE": "U", "NORAD_CAT_ID": 64900, "ELEMENT_SET_NO": 999, "REV_AT_EPOCH": 2112, "BSTAR": 0.0011050076, "MEAN_MOTION_DOT": 0.0002391, "MEAN_MOTION_DDOT": 0}, "tle": {"line1": "1 64900U 25156B   25346.18509253  .00023910  00000+0  11050-2 0  9994", "line2": "2 64900  97.4437  62.5626 0005472 185.3200 174.7978 15.20160723 21125"}}, "geometry": {"type": "Point", "coordinates": [73.24054932519337, -53.47606479292002]}}]}